NORAD_CAT_ID,OBJECT_NAME,OBJECT_TYPE,EPOCH,MEAN_MOTION,ECCENTRICITY,INCLINATION,RA_OF_ASC_NODE,ARG_OF_PERICENTER,MEAN_ANOMALY,BSTAR,MEAN_MOTION_DOT,MEAN_MOTION_DDOT,TLE_LINE0,TLE_LINE1,TLE_LINE2,SEMIMAJOR_AXIS,PERIOD,APOGEE,PERIGEE,DECAYED
56458.0,STARLINK-6050,PAYLOAD,2024-01-04 08:57:56,14.98375427,0.0002319,70.0003,349.8025,253.253,106.8374,-0.0007905,-9.523e-05,0.0,0 STARLINK-6050,1 56458U 23064L   24004.37356865 -.00009523  00000-0 -79050-3 0  9991,2 56458  70.0003 349.8025 0002319 253.2530 106.8374 14.98375427 36475,6950.052,96.104,573.529,570.306,0.0
56458.0,STARLINK-6050,PAYLOAD,2024-01-04 21:47:01,14.98330914,0.0002769,70.0003,348.4559,267.8586,92.2256,-2.9696e-06,-1.28e-06,0.0,0 STARLINK-6050,1 56458U 23064L   24004.90765879 -.00000128  00000-0 -29696-5 0  9994,2 56458  70.0003 348.4559 0002769 267.8586  92.2256 14.98330914 36191,6950.19,96.107,573.98,570.131,0.0
56458.0,STARLINK-6050,PAYLOAD,2024-01-05 04:11:34,14.98328425,0.0002712,70.0002,347.7815,264.8127,95.2722,3.9537e-06,-4.6e-07,0.0,0 STARLINK-6050,1 56458U 23064L   24005.17469992 -.00000046  00000-0  39537-5 0  9994,2 56458  70.0002 347.7815 0002712 264.8127  95.2722 14.98328425 36592,6950.198,96.107,573.948,570.178,0.0
56458.0,STARLINK-6050,PAYLOAD,2024-01-05 08:59:58,14.98330959,0.0002839,70.0002,347.2772,267.8002,92.2832,-1.0766e-05,-2.21e-06,0.0,0 STARLINK-6050,1 56458U 23064L   24005.37497896 -.00000221  00000-0 -10766-4 0  9998,2 56458  70.0002 347.2772 0002839 267.8002  92.2832 14.98330959 36262,6950.19,96.107,574.028,570.082,0.0
56458.0,STARLINK-6050,PAYLOAD,2024-01-06 04:13:34,14.98331335,0.0002534,70.0002,345.2572,261.5871,98.5,-1.3036e-05,-2.48e-06,0.0,0 STARLINK-6050,1 56458U 23064L   24006.17609876 -.00000248  00000-0 -13036-4 0  9992,2 56458  70.0002 345.2572 0002534 261.5871  98.5000 14.98331335 36743,6950.189,96.107,573.815,570.293,0.0
56458.0,STARLINK-6050,PAYLOAD,2024-01-06 07:25:50,14.98330509,0.0002663,70.0003,344.9207,262.0734,98.0123,3.5013e-05,3.25e-06,0.0,0 STARLINK-6050,1 56458U 23064L   24006.30961768  .00000325  00000-0  35013-4 0  9991,2 56458  70.0003 344.9207 0002663 262.0734  98.0123 14.98330509 36408,6950.191,96.107,573.907,570.205,0.0
56458.0,STARLINK-6050,PAYLOAD,2024-01-06 21:51:03,14.98326673,0.00031,70.0005,343.4068,269.6772,90.4032,4.9489e-05,4.97e-06,0.0,0 STARLINK-6050,1 56458U 23064L   24006.91045889  .00000497  00000-0  49489-4 0  9997,2 56458  70.0005 343.4068 0003100 269.6772  90.4032 14.98326673 36492,6950.203,96.107,574.223,569.914,0.0
56458.0,STARLINK-6050,PAYLOAD,2024-01-07 04:15:35,14.98345552,0.0002593,70.0005,342.7331,266.2063,93.8799,-0.00028994,-3.552e-05,0.0,0 STARLINK-6050,1 56458U 23064L   24007.17749678 -.00003552  00000-0 -28994-3 0  9997,2 56458  70.0005 342.7331 0002593 266.2063  93.8799 14.98345552 36896,6950.145,96.106,573.812,570.208,0.0
56458.0,STARLINK-6050,PAYLOAD,2024-01-07 05:51:42,14.9838012,0.0003027,70.0005,342.5647,264.7504,95.331,-0.00085495,-0.00010292,0.0,0 STARLINK-6050,1 56458U 23064L   24007.24424768 -.00010292  00000-0 -85495-3 0  9993,2 56458  70.0005 342.5647 0003027 264.7504  95.3310 14.98380120 36908,6950.038,96.104,574.007,569.799,0.0
56458.0,STARLINK-6050,PAYLOAD,2024-01-07 21:53:04,14.98331712,0.0002664,70.0007,340.8814,265.8233,94.2621,1.359e-05,6.9e-07,0.0,0 STARLINK-6050,1 56458U 23064L   24007.91185696  .00000069  00000-0  13590-4 0  9998,2 56458  70.0007 340.8814 0002664 265.8233  94.2621 14.98331712 36641,6950.188,96.107,573.904,570.201,0.0
56458.0,STARLINK-6050,PAYLOAD,2024-01-08 04:17:36,14.98331355,0.0002689,70.0006,340.2082,265.0516,95.0336,5.9592e-06,-2.2e-07,0.0,0 STARLINK-6050,1 56458U 23064L   24008.17889695 -.00000022  00000-0  59592-5 0  9990,2 56458  70.0006 340.2082 0002689 265.0516  95.0336 14.98331355 37044,6950.189,96.107,573.923,570.185,0.0
56458.0,STARLINK-6050,PAYLOAD,2024-01-08 07:29:52,14.98332978,0.0002765,70.0004,339.871,267.9228,92.1615,1.8641e-05,1.29e-06,0.0,0 STARLINK-6050,1 56458U 23064L   24008.31241541  .00000129  00000-0  18641-4 0  9994,2 56458  70.0004 339.8710 0002765 267.9228  92.1615 14.98332978 36702,6950.184,96.107,573.97,570.127,0.0
56458.0,STARLINK-6050,PAYLOAD,2024-01-09 04:19:37,14.98326667,0.0002758,70.0004,337.6825,265.8846,94.1997,-2.2706e-05,-3.64e-06,0.0,0 STARLINK-6050,1 56458U 23064L   24009.18030023 -.00000364  00000-0 -22706-4 0  9991,2 56458  70.0004 337.6825 0002758 265.8846  94.1997 14.98326667 37197,6950.203,96.107,573.985,570.151,0.0
56458.0,STARLINK-6050,PAYLOAD,2024-01-09 07:31:53,14.98338166,0.0002785,70.0006,337.3461,267.277,92.807,-0.00014115,-1.777e-05,0.0,0 STARLINK-6050,1 56458U 23064L   24009.31381558 -.00001777  00000-0 -14115-3 0  9991,2 56458  70.0006 337.3461 0002785 267.2770  92.8070 14.98338166 37211,6950.168,96.106,573.968,570.097,0.0
56458.0,STARLINK-6050,PAYLOAD,2024-01-09 21:57:06,14.98331454,0.0002753,70.0005,335.8311,266.2443,93.8401,-9.5153e-06,-2.06e-06,0.0,0 STARLINK-6050,1 56458U 23064L   24009.91465663 -.00000206  00000-0 -95153-5 0  9996,2 56458  70.0005 335.8311 0002753 266.2443  93.8401 14.98331454 36949,6950.188,96.107,573.967,570.14,0.0
56458.0,STARLINK-6050,PAYLOAD,2024-01-10 07:33:54,14.9833347,0.0002794,70.0005,334.8206,268.8914,91.1925,1.1398e-05,4.3e-07,0.0,0 STARLINK-6050,1 56458U 23064L   24010.31521440  .00000043  00000-0  11398-4 0  9993,2 56458  70.0005 334.8206 0002794 268.8914  91.1925 14.98333470 37366,6950.182,96.107,573.989,570.105,0.0
56458.0,STARLINK-6050,PAYLOAD,2024-01-11 02:47:31,14.98315271,0.0002733,70.0009,332.8009,271.7561,88.3285,0.00022602,2.604e-05,0.0,0 STARLINK-6050,1 56458U 23064L   24011.11633958  .00002604  00000-0  22602-3 0  9994,2 56458  70.0009 332.8009 0002733 271.7561  88.3285 14.98315271 37482,6950.238,96.108,574.003,570.204,0.0
56458.0,STARLINK-6050,PAYLOAD,2024-01-11 07:35:55,14.98320246,0.0002607,70.0011,332.2961,270.8728,89.2132,0.00029861,3.471e-05,0.0,0 STARLINK-6050,1 56458U 23064L   24011.31661563  .00003471  00000-0  29861-3 0  9996,2 56458  70.0011 332.2961 0002607 270.8728  89.2132 14.98320246 37154,6950.223,96.108,573.9,570.276,0.0
56458.0,STARLINK-6050,PAYLOAD,2024-01-11 20:25:00,14.98329921,0.0002406,70.0016,330.9509,262.8527,97.2358,1.1581e-05,4.5e-07,0.0,0 STARLINK-6050,1 56458U 23064L   24011.85069589  .00000045  00000-0  11581-4 0  9990,2 56458  70.0016 330.9509 0002406 262.8527  97.2358 14.98329921 37593,6950.193,96.107,573.73,570.386,0.0
56458.0,STARLINK-6050,PAYLOAD,2024-01-11 22:01:08,14.98329039,0.0002318,70.0018,330.782,259.3909,100.6989,1.3148e-05,6.4e-07,0.0,0 STARLINK-6050,1 56458U 23064L   24011.91745621  .00000064  00000-0  13148-4 0  9997,2 56458  70.0018 330.7820 0002318 259.3909 100.6989 14.98329039 37247,6950.196,96.107,573.672,570.45,0.0
56458.0,STARLINK-6050,PAYLOAD,2024-01-12 07:37:55,14.98354196,0.0002601,70.0015,329.7718,265.0221,95.0641,-0.00037068,-4.516e-05,0.0,0 STARLINK-6050,1 56458U 23064L   24012.31800909 -.00004516  00000-0 -37068-3 0  9997,2 56458  70.0015 329.7718 0002601 265.0221  95.0641 14.98354196 37664,6950.118,96.105,573.791,570.175,0.0
56458.0,STARLINK-6050,PAYLOAD,2024-01-12 20:27:01,14.98328197,0.0002369,70.0014,328.4243,262.7093,97.3797,-1.5468e-06,-1.11e-06,0.0,0 STARLINK-6050,1 56458U 23064L   24012.85209751 -.00000111  00000-0 -15468-5 0  9993,2 56458  70.0014 328.4243 0002369 262.7093  97.3797 14.98328197 37742,6950.198,96.107,573.71,570.417,0.0
56458.0,STARLINK-6050,PAYLOAD,2024-01-12 22:03:09,14.98328314,0.0002446,70.0015,328.2568,252.3206,107.7686,-4.2041e-06,-1.43e-06,0.0,0 STARLINK-6050,1 56458U 23064L   24012.91885687 -.00000143  00000-0 -42041-5 0  9990,2 56458  70.0015 328.2568 0002446 252.3206 107.7686 14.98328314 37393,6950.198,96.107,573.763,570.363,0.0
56458.0,STARLINK-6050,PAYLOAD,2024-01-13 07:39:57,14.98328574,0.0002504,70.0012,327.2471,253.2703,106.8181,-1.6576e-05,-2.91e-06,0.0,0 STARLINK-6050,1 56458U 23064L   24013.31941742 -.00000291  00000-0 -16576-4 0  9997,2 56458  70.0012 327.2471 0002504 253.2703 106.8181 14.98328574 37454,6950.197,96.107,573.803,570.322,0.0
56458.0,STARLINK-6050,PAYLOAD,2024-01-13 20:29:02,14.98326464,0.0002535,70.0008,325.9,257.5733,102.5143,-8.7629e-06,-1.97e-06,0.0,0 STARLINK-6050,1 56458U 23064L   24013.85349867 -.00000197  00000-0 -87629-5 0  9999,2 56458  70.0008 325.9000 0002535 257.5733 102.5143 14.98326464 37891,6950.204,96.107,573.831,570.307,0.0
56458.0,STARLINK-6050,PAYLOAD,2024-01-14 06:05:50,14.98327983,0.0002606,70.0005,324.8893,259.2112,100.8754,4.3755e-06,-4.1e-07,0.0,0 STARLINK-6050,1 56458U 23064L   24014.25405807 -.00000041  00000-0  43755-5 0  9990,2 56458  70.0005 324.8893 0002606 259.2112 100.8754 14.98327983 37598,6950.199,96.107,573.875,570.253,0.0
56458.0,STARLINK-6050,PAYLOAD,2024-01-14 22:07:10,14.983331,0.0002657,70.0003,323.2057,257.1018,102.9845,7.0522e-05,7.49e-06,0.0,0 STARLINK-6050,1 56458U 23064L   24014.92165230  .00000749  00000-0  70522-4 0  9992,2 56458  70.0003 323.2057 0002657 257.1018 102.9845 14.98333100 37692,6950.183,96.107,573.895,570.202,0.0
56458.0,STARLINK-6050,PAYLOAD,2024-01-15 02:55:34,14.98334125,0.0002645,70.0004,322.7008,257.2377,102.8487,7.942e-05,8.55e-06,0.0,0 STARLINK-6050,1 56458U 23064L   24015.12193099  .00000855  00000-0  79420-4 0  9993,2 56458  70.0004 322.7008 0002645 257.2377 102.8487 14.98334125 38082,6950.18,96.107,573.883,570.207,0.0
56458.0,STARLINK-6050,PAYLOAD,2024-01-15 06:07:50,14.98338952,0.0002593,70.0006,322.3647,255.9639,104.1232,0.00013353,1.501e-05,0.0,0 STARLINK-6050,1 56458U 23064L   24015.25544582  .00001501  00000-0  13353-3 0  9995,2 56458  70.0006 322.3647 0002593 255.9639 104.1232 14.98338952 37744,6950.165,96.106,573.832,570.228,0.0
56458.0,STARLINK-6050,PAYLOAD,2024-01-15 20:33:03,14.98327132,0.0002298,70.0024,320.8525,229.6168,130.479,4.2675e-05,4.16e-06,0.0,0 STARLINK-6050,1 56458U 23064L   24015.85629471  .00000416  00000-0  42675-4 0  9996,2 56458  70.0024 320.8525 0002298 229.6168 130.4790 14.98327132 37838,6950.202,96.107,573.664,570.47,0.0
